COSMOS 2433 (720)       
1 32275U 07052A   24269.17102346 -.00000082  00000+0  00000+0 0  9999
2 32275  65.8946 337.0557 0005065 231.8297 128.1827  2.13104097131671
COSMOS 2432 (719)       
1 32276U 07052B   24269.32367838 -.00000082  00000+0  00000+0 0  9996
2 32276  65.9097 337.1664 0009217 310.6853 112.3492  2.13103107131660
COSMOS 2434 (721)       
1 32393U 07065A   24268.52294021  .00000017  00000+0  00000+0 0  9991
2 32393  64.3198 213.2096 0001271  56.0735  58.9673  2.13101244130339
COSMOS 2436 (723)       
1 32395U 07065C   24269.33136051  .00000005  00000+0  00000+0 0  9998
2 32395  64.3283 213.2478 0016561 357.2790 152.9461  2.13100022130305
COSMOS 2456 (730)       
1 36111U 09070A   24269.31434656  .00000036  00000+0  00000+0 0  9990
2 36111  64.6600  92.5212 0001571 341.6891 174.6325  2.13103793115007
COSMOS 2457 (733)       
1 36112U 09070B   24269.48620720  .00000037  00000+0  00000+0 0  9999
2 36112  64.6450  92.3717 0006138 141.8177 279.5596  2.13101243115014
COSMOS 2460 (732)       
1 36402U 10007C   24269.53521103 -.00000079  00000+0  00000+0 0  9991
2 36402  65.7488 335.6916 0002162 223.6379 228.5050  2.13106241113402
COSMOS 2476 (744)       
1 37867U 11064A   24269.64919184  .00000040  00000+0  00000+0 0  9990
2 37867  64.9315  94.1820 0021668 230.7488  94.4903  2.13101625100393
COSMOS 2477 (745)       
1 37868U 11064B   24269.48022296  .00000039  00000+0  00000+0 0  9990
2 37868  64.9382  94.2612 0018835 230.9500 143.2781  2.13103091100348
COSMOS 2475 (743)       
1 37869U 11064C   24269.53538774  .00000039  00000+0  00000+0 0  9990
2 37869  64.9454  94.2750 0023177 248.2067 126.3115  2.13101859100351
COSMOS 2485 (747)       
1 39155U 13019A   24269.16715132  .00000036  00000+0  00000+0 0  9993
2 39155  65.0878  94.8037 0022142 226.7380 133.1289  2.13101840 88855
COSMOS 2492 (754)       
1 39620U 14012A   24269.12236685 -.00000079  00000+0  00000+0 0  9999
2 39620  65.6300 335.2680 0012327 309.7876  50.1633  2.13103161 81818
COSMOS 2500 (755)       
1 40001U 14032A   24269.30042091 -.00000079  00000+0  00000+0 0  9992
2 40001  65.5671 335.0593 0008858 207.3490 152.6637  2.13105787 80034
COSMOS 2501 (702K)      
1 40315U 14075A   24269.08536605  .00000007  00000+0  00000+0 0  9991
2 40315  63.6207 212.2044 0020377 209.8078 150.0684  2.13101369 76426
COSMOS 2514 (751)       
1 41330U 16008A   24268.12970814 -.00000078  00000+0  00000+0 0  9994
2 41330  65.3614 334.5833 0012834 212.4730 147.5080  2.13102564 67174
COSMOS 2522 (752)       
1 42939U 17055A   24269.37734732  .00000004  00000+0  00000+0 0  9996
2 42939  64.0819 213.3423 0008979 240.1473 119.7544  2.13101935 54554
COSMOS 2527 (756)       
1 43508U 18053A   24267.92903665  .00000027  00000+0  00000+0 0  9995
2 43508  65.2469  95.0178 0007341 214.2121 145.7909  2.13102303 48824
COSMOS 2529 (757)       
1 43687U 18086A   24269.43542427  .00000005  00000+0  00000+0 0  9998
2 43687  64.2975 213.8800 0010423 260.4758  99.3968  2.13101961 45868
COSMOS 2534 (758)       
1 44299U 19030A   24269.50049375  .00000004  00000+0  00000+0 0  9999
2 44299  64.3708 213.8407 0012401 281.2107 262.8205  2.13101980 41502
COSMOS 2544 (759)       
1 44850U 19088A   24268.81168299  .00000033  00000+0  00000+0 0  9997
2 44850  65.2347  94.8231 0011439 247.7738 112.1560  2.13102070 37285
COSMOS 2545 (760)       
1 45358U 20018A   24269.00851114 -.00000079  00000+0  00000+0 0  9994
2 45358  64.7004 334.4828 0011498 240.0824 119.8626  2.13102407 35239
COSMOS 2547 (705K)      
1 46805U 20075A   24269.19513491  .00000008  00000+0  00000+0 0  9999
2 46805  64.5999 213.5221 0008051 240.7051 119.2057  2.13102759 30486
COSMOS 2557 (706K)      
1 52984U 22075A   24269.36089159 -.00000082  00000+0  00000+0 0  9997
2 52984  64.6296 336.5912 0012978 273.4019  86.5074  2.13102211 17297
COSMOS 2559 (707K)      
1 54031U 22130A   24269.30410930 -.00000083  00000+0  00000+0 0  9994
2 54031  64.6016 336.7074 0008105 222.8697 137.1246  2.13101486 15262
COSMOS 2564 (761)       
1 54377U 22161A   24269.02523958  .00000011  00000+0  00000+0 0  9995
2 54377  64.7413 213.6504 0010372 222.2854 137.6261  2.13102084 14206
COSMOS 2569 (703K)      
1 57517U 23114A   24269.51119148  .00000039  00000+0  00000+0 0  9999
2 57517  64.9627  93.9129 0008615 294.3674  65.5942  2.13103946  8849
